{"type": "FeatureCollection", "features": [ {"type": "Feature", "properties": {"norad_id": 35961, "name": "COSMOS 2251 DEB", "group": "cosmos-2251-debris", "lat": -11.989759779301199, "lon": 29.081894331477816, "alt_km": 794.2289926182502, "timestamp": "2025-12-11T22:43:47.667603+00:00", "meta": {"OBJECT_NAME": "COSMOS 2251 DEB", "OBJECT_ID": "1993-036AVB", "EPOCH": "2025-12-11T08:09:55.723392", "MEAN_MOTION": 14.05375805, "ECCENTRICITY": 0.01919806, "INCLINATION": 73.9248, "RA_OF_ASC_NODE": 206.6381, "ARG_OF_PERICENTER": 140.2943, "MEAN_ANOMALY": 221.2432, "EPHEMERIS_TYPE": 0, "CLASSIFICATION_TYPE": "U", "NORAD_CAT_ID": 35961, "ELEMENT_SET_NO": 999, "REV_AT_EPOCH": 62662, "BSTAR": 0.0012047143, "MEAN_MOTION_DOT": 2.281e-05, "MEAN_MOTION_DDOT": 0}, "tle": {"line1": "1 35961U 93036AVB 25345.34022828  .00002281  00000+0  12047-2 0  9991", "line2": "2 35961  73.9248 206.6381 0191980 140.2943 221.2432 14.05375805626622"}}, "geometry": {"type": "Point", "coordinates": [29.081894331477816, -11.989759779301199]}}, {"type": "Feature", "properties": {"norad_id": 35979, "name": "COSMOS 2251 DEB", "group": "cosmos-2251-debris", "lat": -57.472846074957346, "lon": 86.6563990990022, "alt_km": 680.0447636593908, "timestamp": "2025-12-11T22:43:47.667613+00:00", "meta": {"OBJECT_NAME": "COSMOS 2251 DEB", "OBJECT_ID": "1993-036AVV", "EPOCH": "2025-12-09T11:50:03.223968", "MEAN_MOTION": 14.74576302, "ECCENTRICITY": 0.00588204, "INCLINATION": 74.0104, "RA_OF_ASC_NODE": 244.7352, "ARG_OF_PERICENTER": 17.6471, "MEAN_ANOMALY": 162.3797, "EPHEMERIS_TYPE": 0, "CLASSIFICATION_TYPE": "U", "NORAD_CAT_ID": 35979, "ELEMENT_SET_NO": 999, "REV_AT_EPOCH": 88585, "BSTAR": 0.0014101379, "MEAN_MOTION_DOT": 9.639e-05, "MEAN_MOTION_DDOT": 0}, "tle": {"line1": "1 35979U 93036AVV 25343.49309287  .00009639  00000+0  14101-2 0  9998", "line2": "2 35979  74.0104 244.7352 0058820  17.6471 162.3797 14.74576302885855"}}, "geometry": {"type": "Point", "coordinates": [86.6563990990022, -57.472846074957346]}}, {"type": "Feature", "properties": {"norad_id": 35980, "name": "COSMOS 2251 DEB", "group": "cosmos-2251-debris", "lat": 16.63700598887809, "lon": -60.73756116690468, "alt_km": 699.2713493196115, "timestamp": "2025-12-11T22:43:47.667623+00:00", "meta": {"OBJECT_NAME": "COSMOS 2251 DEB", "OBJECT_ID": "1993-036AVW", "EPOCH": "2025-12-02T19:08:08.015136", "MEAN_MOTION": 14.59062146, "ECCENTRICITY": 0.00537712, "INCLINATION": 73.91, "RA_OF_ASC_NODE": 141.7735, "ARG_OF_PERICENTER": 277.5645, "MEAN_ANOMALY": 81.9413, "EPHEMERIS_TYPE": 0, "CLASSIFICATION_TYPE": "U", "NORAD_CAT_ID": 35980, "ELEMENT_SET_NO": 999, "REV_AT_EPOCH": 61341, "BSTAR": 0.002036555, "MEAN_MOTION_DOT": 9.752e-05, "MEAN_MOTION_DDOT": 0}, "tle": {"line1": "1 35980U 93036AVW 25336.79731499  .00009752  00000+0  20366-2 0  9995", "line2": "2 35980  73.9100 141.7735 0053771 277.5645  81.9413 14.59062146613413"}}, "geometry": {"type": "Point", "coordinates": [-60.73756116690468, 16.63700598887809]}}, {"type": "Feature", "properties": {"norad_id": 35982, "name": "COSMOS 2251 DEB", "group": "cosmos-2251-debris", "lat": 70.28692737322547, "lon": 41.36109677845734, "alt_km": 635.5414244394451, "timestamp": "2025-12-11T22:43:47.667633+00:00", "meta": {"OBJECT_NAME": "COSMOS 2251 DEB", "OBJECT_ID": "1993-036AVY", "EPOCH": "2025-12-10T10:15:57.560256", "MEAN_MOTION": 14.62729028, "ECCENTRICITY": 0.00640782, "INCLINATION": 74.0584, "RA_OF_ASC_NODE": 351.3546, "ARG_OF_PERICENTER": 58.3661, "MEAN_ANOMALY": 302.3736, "EPHEMERIS_TYPE": 0, "CLASSIFICATION_TYPE": "U", "NORAD_CAT_ID": 35982, "ELEMENT_SET_NO": 999, "REV_AT_EPOCH": 86132, "BSTAR": 0.00082067194, "MEAN_MOTION_DOT": 4.278e-05, "MEAN_MOTION_DDOT": 0}, "tle": {"line1": "1 35982U 93036AVY 25344.42774954  .00004278  00000+0  82067-3 0  9994", "line2": "2 35982  74.0584 351.3546 0064078  58.3661 302.3736 14.62729028861323"}}, "geometry": {"type": "Point", "coordinates": [41.36109677845734, 70.28692737322547]}}, {"type": "Feature", "properties": {"norad_id": 35987, "name": "COSMOS 2251 DEB", "group": "cosmos-2251-debris", "lat": 49.85461061789395, "lon": 128.22958719719333, "alt_km": 715.8600395538697, "timestamp": "2025-12-11T22:43:47.667643+00:00", "meta": {"OBJECT_NAME": "COSMOS 2251 DEB", "OBJECT_ID": "1993-036AWD", "EPOCH": "2025-12-11T05:30:31.150080", "MEAN_MOTION": 14.43110132, "ECCENTRICITY": 0.00459363, "INCLINATION": 74.0001, "RA_OF_ASC_NODE": 329.4532, "ARG_OF_PERICENTER": 95.6067, "MEAN_ANOMALY": 265.033, "EPHEMERIS_TYPE": 0, "CLASSIFICATION_TYPE": "U", "NORAD_CAT_ID": 35987, "ELEMENT_SET_NO": 999, "REV_AT_EPOCH": 61043, "BSTAR": 0.0014697546, "MEAN_MOTION_DOT": 4.973e-05, "MEAN_MOTION_DDOT": 0}, "tle": {"line1": "1 35987U 93036AWD 25345.22952720  .00004973  00000+0  14698-2 0  9993", "line2": "2 35987  74.0001 329.4532 0045936  95.6067 265.0330 14.43110132610437"}}, "geometry": {"type": "Point", "coordinates": [128.22958719719333, 49.85461061789395]}}, {"type": "Feature", "properties": {"norad_id": 35989, "name": "COSMOS 2251 DEB", "group": "cosmos-2251-debris", "lat": -8.865003453278641, "lon": 107.84889308018121, "alt_km": 787.4410109866712, "timestamp": "2025-12-11T22:43:47.667653+00:00", "meta": {"OBJECT_NAME": "COSMOS 2251 DEB", "OBJECT_ID": "1993-036AWF", "EPOCH": "2025-12-10T12:26:20.084064", "MEAN_MOTION": 14.37097303, "ECCENTRICITY": 0.0021915, "INCLINATION": 74.0383, "RA_OF_ASC_NODE": 287.9166, "ARG_OF_PERICENTER": 10.2145, "MEAN_ANOMALY": 349.9449, "EPHEMERIS_TYPE": 0, "CLASSIFICATION_TYPE": "U", "NORAD_CAT_ID": 35989, "ELEMENT_SET_NO": 999, "REV_AT_EPOCH": 87147, "BSTAR": 0.00040745, "MEAN_MOTION_DOT": 1.187e-05, "MEAN_MOTION_DDOT": 0}, "tle": {"line1": "1 35989U 93036AWF 25344.51828801  .00001187  00000+0  40745-3 0  9995", "line2": "2 35989  74.0383 287.9166 0021915  10.2145 349.9449 14.37097303871477"}}, "geometry": {"type": "Point", "coordinates": [107.84889308018121, -8.865003453278641]}}, {"type": "Feature", "properties": {"norad_id": 35993, "name": "COSMOS 2251 DEB", "group": "cosmos-2251-debris", "lat": -12.412500756367256, "lon": -29.290028654029456, "alt_km": 700.7237184020814, "timestamp": "2025-12-11T22:43:47.667663+00:00", "meta": {"OBJECT_NAME": "COSMOS 2251 DEB", "OBJECT_ID": "1993-036AWK", "EPOCH": "2025-12-09T16:42:55.834848", "MEAN_MOTION": 14.65265094, "ECCENTRICITY": 0.00290722, "INCLINATION": 74.0153, "RA_OF_ASC_NODE": 338.6616, "ARG_OF_PERICENTER": 169.2926, "MEAN_ANOMALY": 190.8869, "EPHEMERIS_TYPE": 0, "CLASSIFICATION_TYPE": "U", "NORAD_CAT_ID": 35993, "ELEMENT_SET_NO": 999, "REV_AT_EPOCH": 60398, "BSTAR": 0.0011875212, "MEAN_MOTION_DOT": 6.416e-05, "MEAN_MOTION_DDOT": 0}, "tle": {"line1": "1 35993U 93036AWK 25343.69647957  .00006416  00000+0  11875-2 0  9990", "line2": "2 35993  74.0153 338.6616 0029072 169.2926 190.8869 14.65265094603988"}}, "geometry": {"type": "Point", "coordinates": [-29.290028654029456, -12.412500756367256]}}, {"type": "Feature", "properties": {"norad_id": 35996, "name": "COSMOS 2251 DEB", "group": "cosmos-2251-debris", "lat": -48.839516402309485, "lon": 85.9153965062761, "alt_km": 568.1318992454026, "timestamp": "2025-12-11T22:43:47.667673+00:00", "meta": {"OBJECT_NAME": "COSMOS 2251 DEB", "OBJECT_ID": "1993-036AWN", "EPOCH": "2025-12-11T00:41:09.521088", "MEAN_MOTION": 15.0906793, "ECCENTRICITY": 0.00884253, "INCLINATION": 74.0157, "RA_OF_ASC_NODE": 106.9511, "ARG_OF_PERICENTER": 198.4339, "MEAN_ANOMALY": 161.3644, "EPHEMERIS_TYPE": 0, "CLASSIFICATION_TYPE": "U", "NORAD_CAT_ID": 35996, "ELEMENT_SET_NO": 999, "REV_AT_EPOCH": 72300, "BSTAR": 0.0011651351, "MEAN_MOTION_DOT": 0.00020245, "MEAN_MOTION_DDOT": 0}, "tle": {"line1": "1 35996U 93036AWN 25345.02858242  .00020245  00000+0  11651-2 0  9991", "line2": "2 35996  74.0157 106.9511 0088425 198.4339 161.3644 15.09067930723002"}}, "geometry": {"type": "Point", "coordinates": [85.9153965062761, -48.839516402309485]}}, {"type": "Feature", "properties": {"norad_id": 35997, "name": "COSMOS 2251 DEB", "group": "cosmos-2251-debris", "lat": -22.48301295323098, "lon": 15.586220321664799, "alt_km": 720.9367137334484, "timestamp": "2025-12-11T22:43:47.667683+00:00", "meta": {"OBJECT_NAME": "COSMOS 2251 DEB", "OBJECT_ID": "1993-036AWP", "EPOCH": "2025-12-09T20:09:48.839904", "MEAN_MOTION": 14.51292272, "ECCENTRICITY": 0.00157365, "INCLINATION": 74.043, "RA_OF_ASC_NODE": 192.7469, "ARG_OF_PERICENTER": 268.5156, "MEAN_ANOMALY": 91.4203, "EPHEMERIS_TYPE": 0, "CLASSIFICATION_TYPE": "U", "NORAD_CAT_ID": 35997, "ELEMENT_SET_NO": 999, "REV_AT_EPOCH": 70842, "BSTAR": 0.00093479882, "MEAN_MOTION_DOT": 3.7e-05, "MEAN_MOTION_DDOT": 0}, "tle": {"line1": "1 35997U 93036AWP 25343.84014861  .00003700  00000+0  93480-3 0  9999", "line2": "2 35997  74.0430 192.7469 0015736 268.5156  91.4203 14.51292272708421"}}, "geometry": {"type": "Point", "coordinates": [15.586220321664799, -22.48301295323098]}}, {"type": "Feature", "properties": {"norad_id": 36005, "name": "COSMOS 2251 DEB", "group": "cosmos-2251-debris", "lat": -61.79346812198255, "lon": -52.231439637995976, "alt_km": 698.2140682016234, "timestamp": "2025-12-11T22:43:47.667693+00:00", "meta": {"OBJECT_NAME": "COSMOS 2251 DEB", "OBJECT_ID": "1993-036AWX", "EPOCH": "2025-12-10T17:23:32.272512", "MEAN_MOTION": 14.47353034, "ECCENTRICITY": 0.00619888, "INCLINATION": 74.0266, "RA_OF_ASC_NODE": 97.7757, "ARG_OF_PERICENTER": 235.5382, "MEAN_ANOMALY": 123.9911, "EPHEMERIS_TYPE": 0, "CLASSIFICATION_TYPE": "U", "NORAD_CAT_ID": 36005, "ELEMENT_SET_NO": 999, "REV_AT_EPOCH": 87555, "BSTAR": 0.00035630183, "MEAN_MOTION_DOT": 1.308e-05, "MEAN_MOTION_DDOT": 0}, "tle": {"line1": "1 36005U 93036AWX 25344.72467908  .00001308  00000+0  35630-3 0  9997", "line2": "2 36005  74.0266  97.7757 0061988 235.5382 123.9911 14.47353034875553"}}, "geometry": {"type": "Point", "coordinates": [-52.231439637995976, -61.79346812198255]}}]}